SENTINEL-5P
1 42969U 17064A   18094.24821853 -.00000007  00000-0  17562-4 0  9996
2 42969  98.7303  34.9615 0001016  70.8193 289.3119 14.19563767 24510
